[{"OBJECT_NAME":"OBJECT E","OBJECT_ID":"2024-174E","EPOCH":"2026-03-09T23:40:24.424320","MEAN_MOTION":15.26241811,"ECCENTRICITY":0.00122518,"INCLINATION":97.4515,"RA_OF_ASC_NODE":80.1669,"ARG_OF_PERICENTER":217.7524,"MEAN_ANOMALY":142.2856,"EPHEMERIS_TYPE":0,"CLASSIFICATION_TYPE":"U","NORAD_CAT_ID":61242,"ELEMENT_SET_NO":999,"REV_AT_EPOCH":8070,"BSTAR":0.00031155901,"MEAN_MOTION_DOT":8.013e-5,"MEAN_MOTION_DDOT":0},{"OBJECT_NAME":"STARLINK-35790","OBJECT_ID":"2025-294AB","EPOCH":"2026-03-09T06:34:44.257440","MEAN_MOTION":15.27597489,"ECCENTRICITY":0.00010936,"INCLINATION":43.0018,"RA_OF_ASC_NODE":40.5866,"ARG_OF_PERICENTER":244.0498,"MEAN_ANOMALY":116.0241,"EPHEMERIS_TYPE":0,"CLASSIFICATION_TYPE":"U","NORAD_CAT_ID":67055,"ELEMENT_SET_NO":999,"REV_AT_EPOCH":1473,"BSTAR":0.00089206523,"MEAN_MOTION_DOT":0.0002438,"MEAN_MOTION_DDOT":0}]
